[{"OBJECT_NAME":"STARLINK-31137","OBJECT_ID":"2023-211V","EPOCH":"2026-03-09T02:28:04.097280","MEAN_MOTION":15.27567968,"ECCENTRICITY":7.632e-5,"INCLINATION":43.0029,"RA_OF_ASC_NODE":88.6918,"ARG_OF_PERICENTER":265.5034,"MEAN_ANOMALY":94.573,"EPHEMERIS_TYPE":0,"CLASSIFICATION_TYPE":"U","NORAD_CAT_ID":58686,"ELEMENT_SET_NO":999,"REV_AT_EPOCH":12237,"BSTAR":-3.1195087e-5,"MEAN_MOTION_DOT":-1.12e-5,"MEAN_MOTION_DDOT":0},{"OBJECT_NAME":"COSMOS 2251 DEB","OBJECT_ID":"1993-036BXP","EPOCH":"2026-03-04T07:23:49.847712","MEAN_MOTION":15.24789556,"ECCENTRICITY":0.00190834,"INCLINATION":73.9759,"RA_OF_ASC_NODE":64.3004,"ARG_OF_PERICENTER":239.4537,"MEAN_ANOMALY":120.4779,"EPHEMERIS_TYPE":0,"CLASSIFICATION_TYPE":"U","NORAD_CAT_ID":47059,"ELEMENT_SET_NO":999,"REV_AT_EPOCH":9543,"BSTAR":0.0048704033,"MEAN_MOTION_DOT":0.00123422,"MEAN_MOTION_DDOT":0}]
